STARLINK-35283          
1 66478U 25262Y   25348.25003472 -.02033642  00000+0 -48253-1 0  9997
2 66478  43.0006  62.2236 0001130 271.7199 266.7952 15.44439946  5885
STARLINK-35581          
1 66479U 25262Z   25348.25003472 -.00886227  00000+0 -22647-1 0  9990
2 66479  43.0009  62.2708 0001732 296.6665 222.3136 15.41218537  5885
STARLINK-35670          
1 66480U 25262AA  25348.25003472 -.02052652  00000+0 -46578-1 0  9990
2 66480  43.0002  62.2047 0000931 273.8038 272.4728 15.45766786  5888
STARLINK-35698          
1 66481U 25262AB  25348.21468966 -.00808298  00000+0 -15611-1 0  9997
2 66481  42.9993  62.3823 0001258 264.0332  96.0384 15.49507623  5796
STARLINK-35648          
1 66482U 25262AC  25347.50580524  .00089167  00000+0  15072-2 0  9990
2 66482  42.9975  66.5208 0001052 275.6037  84.4703 15.50603373  5520
STARLINK-35654          
1 66483U 25262AD  25348.21406340  .00086104  00000+0  14614-2 0  9992
2 66483  42.9973  62.3734 0003286 214.0284 146.0365 15.50498721  5796
STARLINK-35371          
1 66484U 25262AE  25346.66773402  .00004058  00000+0  74961-4 0  9997
2 66484  43.0018  71.4158 0001416 278.2184  81.8515 15.50574998  5552
STARLINK-34774          
1 66485U 25263A   25348.06808095  .00075063  00000+0  17872-2 0  9992
2 66485  43.0009 117.7603 0001429 303.4001  56.6718 15.40689642  5765
STARLINK-34844          
1 66486U 25263B   25347.78402390  .00062922  00000+0  10717-2 0  9990
2 66486  43.0013 119.0631 0004020 285.7981  74.2436 15.50521682  5679
STARLINK-34733          
1 66487U 25263C   25348.25003472  .00104566  00000+0  24811-2 0  9993
2 66487  42.9995 116.4990 0001477 259.9774 117.6057 15.40641824  5875
STARLINK-35515          
1 66488U 25263D   25348.36307104  .00114374  00000+0  19214-2 0  9994
2 66488  42.9997 115.6657 0005632 285.0725  74.9512 15.50648610  5818
STARLINK-35696          
1 66489U 25263E   25347.71857434  .00051598  00000+0  88016-3 0  9994
2 66489  42.9995 119.4300 0001745 269.6287  90.4373 15.50559285  5712
