CCSDS_OMM_VERS = 2.0
CREATION_DATE  = 
ORIGINATOR     = 

OBJECT_NAME    = STARLINK-35283
OBJECT_ID      = 2025-262Y
CENTER_NAME    = EARTH
REF_FRAME      = TEME
TIME_SYSTEM    = UTC
MEAN_ELEMENT_THEORY = SGP/SGP4

EPOCH          = 2025-12-14T06:00:02.999808
MEAN_MOTION    = 15.44439946
ECCENTRICITY   = .00011304
INCLINATION    = 43.0006
RA_OF_ASC_NODE = 62.2236
ARG_OF_PERICENTER = 271.7199
MEAN_ANOMALY   = 266.7952

EPHEMERIS_TYPE = 0
CLASSIFICATION_TYPE = U
NORAD_CAT_ID   = 66478
ELEMENT_SET_NO = 999
REV_AT_EPOCH   = 588
BSTAR          = -.48252663E-1
MEAN_MOTION_DOT = -.2033642E-1
MEAN_MOTION_DDOT = 0

CCSDS_OMM_VERS = 2.0
CREATION_DATE  = 
ORIGINATOR     = 

OBJECT_NAME    = STARLINK-35581
OBJECT_ID      = 2025-262Z
CENTER_NAME    = EARTH
REF_FRAME      = TEME
TIME_SYSTEM    = UTC
MEAN_ELEMENT_THEORY = SGP/SGP4

EPOCH          = 2025-12-14T06:00:02.999808
MEAN_MOTION    = 15.41218537
ECCENTRICITY   = .00017322
INCLINATION    = 43.0009
RA_OF_ASC_NODE = 62.2708
ARG_OF_PERICENTER = 296.6665
MEAN_ANOMALY   = 222.3136

EPHEMERIS_TYPE = 0
CLASSIFICATION_TYPE = U
NORAD_CAT_ID   = 66479
ELEMENT_SET_NO = 999
REV_AT_EPOCH   = 588
BSTAR          = -.22647139E-1
MEAN_MOTION_DOT = -.886227E-2
MEAN_MOTION_DDOT = 0

CCSDS_OMM_VERS = 2.0
CREATION_DATE  = 
ORIGINATOR     = 

OBJECT_NAME    = STARLINK-35670
OBJECT_ID      = 2025-262AA
CENTER_NAME    = EARTH
REF_FRAME      = TEME
TIME_SYSTEM    = UTC
MEAN_ELEMENT_THEORY = SGP/SGP4

EPOCH          = 2025-12-14T06:00:02.999808
MEAN_MOTION    = 15.45766786
ECCENTRICITY   = .00009312
INCLINATION    = 43.0002
RA_OF_ASC_NODE = 62.2047
ARG_OF_PERICENTER = 273.8038
MEAN_ANOMALY   = 272.4728

EPHEMERIS_TYPE = 0
CLASSIFICATION_TYPE = U
NORAD_CAT_ID   = 66480
ELEMENT_SET_NO = 999
REV_AT_EPOCH   = 588
BSTAR          = -.46577784E-1
MEAN_MOTION_DOT = -.2052652E-1
MEAN_MOTION_DDOT = 0

CCSDS_OMM_VERS = 2.0
CREATION_DATE  = 
ORIGINATOR     = 

OBJECT_NAME    = STARLINK-35698
OBJECT_ID      = 2025-262AB
CENTER_NAME    = EARTH
REF_FRAME      = TEME
TIME_SYSTEM    = UTC
MEAN_ELEMENT_THEORY = SGP/SGP4

EPOCH          = 2025-12-14T05:09:09.186624
MEAN_MOTION    = 15.49507623
ECCENTRICITY   = .00012586
INCLINATION    = 42.9993
RA_OF_ASC_NODE = 62.3823
ARG_OF_PERICENTER = 264.0332
MEAN_ANOMALY   = 96.0384

EPHEMERIS_TYPE = 0
CLASSIFICATION_TYPE = U
NORAD_CAT_ID   = 66481
ELEMENT_SET_NO = 999
REV_AT_EPOCH   = 579
BSTAR          = -.15610615E-1
MEAN_MOTION_DOT = -.808298E-2
MEAN_MOTION_DDOT = 0

CCSDS_OMM_VERS = 2.0
CREATION_DATE  = 
ORIGINATOR     = 

OBJECT_NAME    = STARLINK-35648
OBJECT_ID      = 2025-262AC
CENTER_NAME    = EARTH
REF_FRAME      = TEME
TIME_SYSTEM    = UTC
MEAN_ELEMENT_THEORY = SGP/SGP4

EPOCH          = 2025-12-13T12:08:21.572736
MEAN_MOTION    = 15.50603373
ECCENTRICITY   = .00010524
INCLINATION    = 42.9975
RA_OF_ASC_NODE = 66.5208
ARG_OF_PERICENTER = 275.6037
MEAN_ANOMALY   = 84.4703

EPHEMERIS_TYPE = 0
CLASSIFICATION_TYPE = U
NORAD_CAT_ID   = 66482
ELEMENT_SET_NO = 999
REV_AT_EPOCH   = 552
BSTAR          = .15071759E-2
MEAN_MOTION_DOT = .89167E-3
MEAN_MOTION_DDOT = 0

CCSDS_OMM_VERS = 2.0
CREATION_DATE  = 
ORIGINATOR     = 

OBJECT_NAME    = STARLINK-35654
OBJECT_ID      = 2025-262AD
CENTER_NAME    = EARTH
REF_FRAME      = TEME
TIME_SYSTEM    = UTC
MEAN_ELEMENT_THEORY = SGP/SGP4

EPOCH          = 2025-12-14T05:08:15.077760
MEAN_MOTION    = 15.50498721
ECCENTRICITY   = .00032862
INCLINATION    = 42.9973
RA_OF_ASC_NODE = 62.3734
ARG_OF_PERICENTER = 214.0284
MEAN_ANOMALY   = 146.0365

EPHEMERIS_TYPE = 0
CLASSIFICATION_TYPE = U
NORAD_CAT_ID   = 66483
ELEMENT_SET_NO = 999
REV_AT_EPOCH   = 579
BSTAR          = .14614034E-2
MEAN_MOTION_DOT = .86104E-3
MEAN_MOTION_DDOT = 0

CCSDS_OMM_VERS = 2.0
CREATION_DATE  = 
ORIGINATOR     = 

OBJECT_NAME    = STARLINK-35371
OBJECT_ID      = 2025-262AE
CENTER_NAME    = EARTH
REF_FRAME      = TEME
TIME_SYSTEM    = UTC
MEAN_ELEMENT_THEORY = SGP/SGP4

EPOCH          = 2025-12-12T16:01:32.219328
MEAN_MOTION    = 15.50574998
ECCENTRICITY   = .00014167
INCLINATION    = 43.0018
RA_OF_ASC_NODE = 71.4158
ARG_OF_PERICENTER = 278.2184
MEAN_ANOMALY   = 81.8515

EPHEMERIS_TYPE = 0
CLASSIFICATION_TYPE = U
NORAD_CAT_ID   = 66484
ELEMENT_SET_NO = 999
REV_AT_EPOCH   = 555
BSTAR          = .74960958E-4
MEAN_MOTION_DOT = .4058E-4
MEAN_MOTION_DDOT = 0

CCSDS_OMM_VERS = 2.0
CREATION_DATE  = 
ORIGINATOR     = 

OBJECT_NAME    = STARLINK-34774
OBJECT_ID      = 2025-263A
CENTER_NAME    = EARTH
REF_FRAME      = TEME
TIME_SYSTEM    = UTC
MEAN_ELEMENT_THEORY = SGP/SGP4

EPOCH          = 2025-12-14T01:38:02.194080
MEAN_MOTION    = 15.40689642
ECCENTRICITY   = .00014296
INCLINATION    = 43.0009
RA_OF_ASC_NODE = 117.7603
ARG_OF_PERICENTER = 303.4001
MEAN_ANOMALY   = 56.6718

EPHEMERIS_TYPE = 0
CLASSIFICATION_TYPE = U
NORAD_CAT_ID   = 66485
ELEMENT_SET_NO = 999
REV_AT_EPOCH   = 576
BSTAR          = .17871736E-2
MEAN_MOTION_DOT = .75063E-3
MEAN_MOTION_DDOT = 0

CCSDS_OMM_VERS = 2.0
CREATION_DATE  = 
ORIGINATOR     = 

OBJECT_NAME    = STARLINK-34844
OBJECT_ID      = 2025-263B
CENTER_NAME    = EARTH
REF_FRAME      = TEME
TIME_SYSTEM    = UTC
MEAN_ELEMENT_THEORY = SGP/SGP4

EPOCH          = 2025-12-13T18:48:59.664960
MEAN_MOTION    = 15.50521682
ECCENTRICITY   = .00040201
INCLINATION    = 43.0013
RA_OF_ASC_NODE = 119.0631
ARG_OF_PERICENTER = 285.7981
MEAN_ANOMALY   = 74.2436

EPHEMERIS_TYPE = 0
CLASSIFICATION_TYPE = U
NORAD_CAT_ID   = 66486
ELEMENT_SET_NO = 999
REV_AT_EPOCH   = 567
BSTAR          = .10716993E-2
MEAN_MOTION_DOT = .62922E-3
MEAN_MOTION_DDOT = 0

CCSDS_OMM_VERS = 2.0
CREATION_DATE  = 
ORIGINATOR     = 

OBJECT_NAME    = STARLINK-34733
OBJECT_ID      = 2025-263C
CENTER_NAME    = EARTH
REF_FRAME      = TEME
TIME_SYSTEM    = UTC
MEAN_ELEMENT_THEORY = SGP/SGP4

EPOCH          = 2025-12-14T06:00:02.999808
MEAN_MOTION    = 15.40641824
ECCENTRICITY   = .00014774
INCLINATION    = 42.9995
RA_OF_ASC_NODE = 116.4990
ARG_OF_PERICENTER = 259.9774
MEAN_ANOMALY   = 117.6057

EPHEMERIS_TYPE = 0
CLASSIFICATION_TYPE = U
NORAD_CAT_ID   = 66487
ELEMENT_SET_NO = 999
REV_AT_EPOCH   = 587
BSTAR          = .24810724E-2
MEAN_MOTION_DOT = .104566E-2
MEAN_MOTION_DDOT = 0

CCSDS_OMM_VERS = 2.0
CREATION_DATE  = 
ORIGINATOR     = 

OBJECT_NAME    = STARLINK-35515
OBJECT_ID      = 2025-263D
CENTER_NAME    = EARTH
REF_FRAME      = TEME
TIME_SYSTEM    = UTC
MEAN_ELEMENT_THEORY = SGP/SGP4

EPOCH          = 2025-12-14T08:42:49.337856
MEAN_MOTION    = 15.50648610
ECCENTRICITY   = .00056329
INCLINATION    = 42.9997
RA_OF_ASC_NODE = 115.6657
ARG_OF_PERICENTER = 285.0725
MEAN_ANOMALY   = 74.9512

EPHEMERIS_TYPE = 0
CLASSIFICATION_TYPE = U
NORAD_CAT_ID   = 66488
ELEMENT_SET_NO = 999
REV_AT_EPOCH   = 581
BSTAR          = .19213759E-2
MEAN_MOTION_DOT = .114374E-2
MEAN_MOTION_DDOT = 0

CCSDS_OMM_VERS = 2.0
CREATION_DATE  = 
ORIGINATOR     = 

OBJECT_NAME    = STARLINK-35696
OBJECT_ID      = 2025-263E
CENTER_NAME    = EARTH
REF_FRAME      = TEME
TIME_SYSTEM    = UTC
MEAN_ELEMENT_THEORY = SGP/SGP4

EPOCH          = 2025-12-13T17:14:44.822976
MEAN_MOTION    = 15.50559285
ECCENTRICITY   = .00017453
INCLINATION    = 42.9995
RA_OF_ASC_NODE = 119.4300
ARG_OF_PERICENTER = 269.6287
MEAN_ANOMALY   = 90.4373

EPHEMERIS_TYPE = 0
CLASSIFICATION_TYPE = U
NORAD_CAT_ID   = 66489
ELEMENT_SET_NO = 999
REV_AT_EPOCH   = 571
BSTAR          = .88015794E-3
MEAN_MOTION_DOT = .51598E-3
MEAN_MOTION_DDOT = 0

